STARLINK-36269          
1 67472U 26008AD  26030.91667824 -.00284343  00000+0 -18956-2 0  9992
2 67472  43.0003  62.3333 0001118 256.5142  38.4224 15.75223985  3748
STARLINK-36408          
1 67473U 26008AE  26030.91667824  .00060116  00000+0  39206-3 0  9993
2 67473  43.0003  62.3236 0001379 276.4618  22.4015 15.75016498  3749
ALSAT-3A                
1 67474U 26009A   26030.97683284  .00007215  00000+0  30655-3 0  9999
2 67474  97.4701 105.6788 0011750 200.6873 159.3890 15.23298989  2387
CZ-2C R/B               
1 67475U 26009B   26030.92421824  .00007126  00000+0  47818-3 0  9995
2 67475  97.1794 104.2429 0099734 168.0794 192.2828 15.03052911  2402
TIANQI-37               
1 67476U 26010A   26030.93751614  .00000432  00000+0  29808-3 0  9994
2 67476  44.9836 334.6546 0013196  27.7992 332.3550 14.13519074  2146
TIANQI-38               
1 67477U 26010B   26030.93531963  .00000428  00000+0  29383-3 0  9991
2 67477  44.9799 334.6370 0011956  32.9086 327.2494 14.13895354  2142
TIANQI-39               
1 67478U 26010C   26030.29948455  .00000372  00000+0  26634-3 0  9993
2 67478  44.9851 337.5422 0014474  35.9267 324.2542 14.13517208  2054
TIANQI-40               
1 67479U 26010D   26028.88577045  .00000320  00000+0  23705-3 0  9998
2 67479  44.9851 343.9821 0013061  21.9564 338.1832 14.13986611  1856
SZ-20 MODULE            
1 67481U 25082C   26030.48575359  .00026845  00000+0  30081-3 0  9999
2 67481  41.4797  80.2417 0006340  49.5312 310.6080 15.62047113271647
ION SCV-021             
1 67483U 25276DT  26030.91193031  .00001079  00000+0  97680-4 0  9998
2 67483  97.5422 106.3403 0010681 220.1656 139.8778 14.97371622  2067
STARLINK-36551          
1 67493U 26012A   26030.91667824 -.01516209  00000+0 -53785-2 0  9999
2 67493  42.9962 173.1292 0001659 280.0206  69.6895 15.90915529  2996
STARLINK-36396          
1 67494U 26012B   26030.91667824 -.02265587  00000+0 -81380-2 0  9993
2 67494  42.9960 173.1240 0001770 282.8908  68.9336 15.90931330  2991
