CCSDS_OMM_VERS = 2.0
CREATION_DATE  = 
ORIGINATOR     = 

OBJECT_NAME    = STARLINK-36269
OBJECT_ID      = 2026-008AD
CENTER_NAME    = EARTH
REF_FRAME      = TEME
TIME_SYSTEM    = UTC
MEAN_ELEMENT_THEORY = SGP/SGP4

EPOCH          = 2026-01-30T22:00:00.999936
MEAN_MOTION    = 15.75223985
ECCENTRICITY   = .00011183
INCLINATION    = 43.0003
RA_OF_ASC_NODE = 62.3333
ARG_OF_PERICENTER = 256.5142
MEAN_ANOMALY   = 38.4224

EPHEMERIS_TYPE = 0
CLASSIFICATION_TYPE = U
NORAD_CAT_ID   = 67472
ELEMENT_SET_NO = 999
REV_AT_EPOCH   = 374
BSTAR          = -.1895601E-2
MEAN_MOTION_DOT = -.284343E-2
MEAN_MOTION_DDOT = 0

CCSDS_OMM_VERS = 2.0
CREATION_DATE  = 
ORIGINATOR     = 

OBJECT_NAME    = STARLINK-36408
OBJECT_ID      = 2026-008AE
CENTER_NAME    = EARTH
REF_FRAME      = TEME
TIME_SYSTEM    = UTC
MEAN_ELEMENT_THEORY = SGP/SGP4

EPOCH          = 2026-01-30T22:00:00.999936
MEAN_MOTION    = 15.75016498
ECCENTRICITY   = .00013797
INCLINATION    = 43.0003
RA_OF_ASC_NODE = 62.3236
ARG_OF_PERICENTER = 276.4618
MEAN_ANOMALY   = 22.4015

EPHEMERIS_TYPE = 0
CLASSIFICATION_TYPE = U
NORAD_CAT_ID   = 67473
ELEMENT_SET_NO = 999
REV_AT_EPOCH   = 374
BSTAR          = .39205642E-3
MEAN_MOTION_DOT = .60116E-3
MEAN_MOTION_DDOT = 0

CCSDS_OMM_VERS = 2.0
CREATION_DATE  = 
ORIGINATOR     = 

OBJECT_NAME    = ALSAT-3A
OBJECT_ID      = 2026-009A
CENTER_NAME    = EARTH
REF_FRAME      = TEME
TIME_SYSTEM    = UTC
MEAN_ELEMENT_THEORY = SGP/SGP4

EPOCH          = 2026-01-30T23:26:38.357376
MEAN_MOTION    = 15.23298989
ECCENTRICITY   = .00117504
INCLINATION    = 97.4701
RA_OF_ASC_NODE = 105.6788
ARG_OF_PERICENTER = 200.6873
MEAN_ANOMALY   = 159.3890

EPHEMERIS_TYPE = 0
CLASSIFICATION_TYPE = U
NORAD_CAT_ID   = 67474
ELEMENT_SET_NO = 999
REV_AT_EPOCH   = 238
BSTAR          = .30654795E-3
MEAN_MOTION_DOT = .7215E-4
MEAN_MOTION_DDOT = 0

CCSDS_OMM_VERS = 2.0
CREATION_DATE  = 
ORIGINATOR     = 

OBJECT_NAME    = CZ-2C R/B
OBJECT_ID      = 2026-009B
CENTER_NAME    = EARTH
REF_FRAME      = TEME
TIME_SYSTEM    = UTC
MEAN_ELEMENT_THEORY = SGP/SGP4

EPOCH          = 2026-01-30T22:10:52.455936
MEAN_MOTION    = 15.03052911
ECCENTRICITY   = .00997345
INCLINATION    = 97.1794
RA_OF_ASC_NODE = 104.2429
ARG_OF_PERICENTER = 168.0794
MEAN_ANOMALY   = 192.2828

EPHEMERIS_TYPE = 0
CLASSIFICATION_TYPE = U
NORAD_CAT_ID   = 67475
ELEMENT_SET_NO = 999
REV_AT_EPOCH   = 240
BSTAR          = .47818484E-3
MEAN_MOTION_DOT = .7126E-4
MEAN_MOTION_DDOT = 0

CCSDS_OMM_VERS = 2.0
CREATION_DATE  = 
ORIGINATOR     = 

OBJECT_NAME    = TIANQI-37
OBJECT_ID      = 2026-010A
CENTER_NAME    = EARTH
REF_FRAME      = TEME
TIME_SYSTEM    = UTC
MEAN_ELEMENT_THEORY = SGP/SGP4

EPOCH          = 2026-01-30T22:30:01.394496
MEAN_MOTION    = 14.13519074
ECCENTRICITY   = .00131964
INCLINATION    = 44.9836
RA_OF_ASC_NODE = 334.6546
ARG_OF_PERICENTER = 27.7992
MEAN_ANOMALY   = 332.3550

EPHEMERIS_TYPE = 0
CLASSIFICATION_TYPE = U
NORAD_CAT_ID   = 67476
ELEMENT_SET_NO = 999
REV_AT_EPOCH   = 214
BSTAR          = .29808472E-3
MEAN_MOTION_DOT = .432E-5
MEAN_MOTION_DDOT = 0

CCSDS_OMM_VERS = 2.0
CREATION_DATE  = 
ORIGINATOR     = 

OBJECT_NAME    = TIANQI-38
OBJECT_ID      = 2026-010B
CENTER_NAME    = EARTH
REF_FRAME      = TEME
TIME_SYSTEM    = UTC
MEAN_ELEMENT_THEORY = SGP/SGP4

EPOCH          = 2026-01-30T22:26:51.616032
MEAN_MOTION    = 14.13895354
ECCENTRICITY   = .00119568
INCLINATION    = 44.9799
RA_OF_ASC_NODE = 334.6370
ARG_OF_PERICENTER = 32.9086
MEAN_ANOMALY   = 327.2494

EPHEMERIS_TYPE = 0
CLASSIFICATION_TYPE = U
NORAD_CAT_ID   = 67477
ELEMENT_SET_NO = 999
REV_AT_EPOCH   = 214
BSTAR          = .29382892E-3
MEAN_MOTION_DOT = .428E-5
MEAN_MOTION_DDOT = 0

CCSDS_OMM_VERS = 2.0
CREATION_DATE  = 
ORIGINATOR     = 

OBJECT_NAME    = TIANQI-39
OBJECT_ID      = 2026-010C
CENTER_NAME    = EARTH
REF_FRAME      = TEME
TIME_SYSTEM    = UTC
MEAN_ELEMENT_THEORY = SGP/SGP4

EPOCH          = 2026-01-30T07:11:15.465120
MEAN_MOTION    = 14.13517208
ECCENTRICITY   = .00144744
INCLINATION    = 44.9851
RA_OF_ASC_NODE = 337.5422
ARG_OF_PERICENTER = 35.9267
MEAN_ANOMALY   = 324.2542

EPHEMERIS_TYPE = 0
CLASSIFICATION_TYPE = U
NORAD_CAT_ID   = 67478
ELEMENT_SET_NO = 999
REV_AT_EPOCH   = 205
BSTAR          = .266337E-3
MEAN_MOTION_DOT = .372E-5
MEAN_MOTION_DDOT = 0

CCSDS_OMM_VERS = 2.0
CREATION_DATE  = 
ORIGINATOR     = 

OBJECT_NAME    = TIANQI-40
OBJECT_ID      = 2026-010D
CENTER_NAME    = EARTH
REF_FRAME      = TEME
TIME_SYSTEM    = UTC
MEAN_ELEMENT_THEORY = SGP/SGP4

EPOCH          = 2026-01-28T21:15:30.566880
MEAN_MOTION    = 14.13986611
ECCENTRICITY   = .0013061
INCLINATION    = 44.9851
RA_OF_ASC_NODE = 343.9821
ARG_OF_PERICENTER = 21.9564
MEAN_ANOMALY   = 338.1832

EPHEMERIS_TYPE = 0
CLASSIFICATION_TYPE = U
NORAD_CAT_ID   = 67479
ELEMENT_SET_NO = 999
REV_AT_EPOCH   = 185
BSTAR          = .23704672E-3
MEAN_MOTION_DOT = .32E-5
MEAN_MOTION_DDOT = 0

CCSDS_OMM_VERS = 2.0
CREATION_DATE  = 
ORIGINATOR     = 

OBJECT_NAME    = SZ-20 MODULE
OBJECT_ID      = 2025-082C
CENTER_NAME    = EARTH
REF_FRAME      = TEME
TIME_SYSTEM    = UTC
MEAN_ELEMENT_THEORY = SGP/SGP4

EPOCH          = 2026-01-30T11:39:29.110176
MEAN_MOTION    = 15.62047113
ECCENTRICITY   = .00063409
INCLINATION    = 41.4797
RA_OF_ASC_NODE = 80.2417
ARG_OF_PERICENTER = 49.5312
MEAN_ANOMALY   = 310.6080

EPHEMERIS_TYPE = 0
CLASSIFICATION_TYPE = U
NORAD_CAT_ID   = 67481
ELEMENT_SET_NO = 999
REV_AT_EPOCH   = 27164
BSTAR          = .30081457E-3
MEAN_MOTION_DOT = .26845E-3
MEAN_MOTION_DDOT = 0

CCSDS_OMM_VERS = 2.0
CREATION_DATE  = 
ORIGINATOR     = 

OBJECT_NAME    = ION SCV-021
OBJECT_ID      = 2025-276DT
CENTER_NAME    = EARTH
REF_FRAME      = TEME
TIME_SYSTEM    = UTC
MEAN_ELEMENT_THEORY = SGP/SGP4

EPOCH          = 2026-01-30T21:53:10.778784
MEAN_MOTION    = 14.97371622
ECCENTRICITY   = .00106818
INCLINATION    = 97.5422
RA_OF_ASC_NODE = 106.3403
ARG_OF_PERICENTER = 220.1656
MEAN_ANOMALY   = 139.8778

EPHEMERIS_TYPE = 0
CLASSIFICATION_TYPE = U
NORAD_CAT_ID   = 67483
ELEMENT_SET_NO = 999
REV_AT_EPOCH   = 206
BSTAR          = .97679819E-4
MEAN_MOTION_DOT = .1079E-4
MEAN_MOTION_DDOT = 0

CCSDS_OMM_VERS = 2.0
CREATION_DATE  = 
ORIGINATOR     = 

OBJECT_NAME    = STARLINK-36551
OBJECT_ID      = 2026-012A
CENTER_NAME    = EARTH
REF_FRAME      = TEME
TIME_SYSTEM    = UTC
MEAN_ELEMENT_THEORY = SGP/SGP4

EPOCH          = 2026-01-30T22:00:00.999936
MEAN_MOTION    = 15.90915529
ECCENTRICITY   = .00016598
INCLINATION    = 42.9962
RA_OF_ASC_NODE = 173.1292
ARG_OF_PERICENTER = 280.0206
MEAN_ANOMALY   = 69.6895

EPHEMERIS_TYPE = 0
CLASSIFICATION_TYPE = U
NORAD_CAT_ID   = 67493
ELEMENT_SET_NO = 999
REV_AT_EPOCH   = 299
BSTAR          = -.53785368E-2
MEAN_MOTION_DOT = -.1516209E-1
MEAN_MOTION_DDOT = 0

CCSDS_OMM_VERS = 2.0
CREATION_DATE  = 
ORIGINATOR     = 

OBJECT_NAME    = STARLINK-36396
OBJECT_ID      = 2026-012B
CENTER_NAME    = EARTH
REF_FRAME      = TEME
TIME_SYSTEM    = UTC
MEAN_ELEMENT_THEORY = SGP/SGP4

EPOCH          = 2026-01-30T22:00:00.999936
MEAN_MOTION    = 15.90931330
ECCENTRICITY   = .00017705
INCLINATION    = 42.9960
RA_OF_ASC_NODE = 173.1240
ARG_OF_PERICENTER = 282.8908
MEAN_ANOMALY   = 68.9336

EPHEMERIS_TYPE = 0
CLASSIFICATION_TYPE = U
NORAD_CAT_ID   = 67494
ELEMENT_SET_NO = 999
REV_AT_EPOCH   = 299
BSTAR          = -.81380377E-2
MEAN_MOTION_DOT = -.2265587E-1
MEAN_MOTION_DDOT = 0

